ONEWEB-0597             
1 54663U 22166X   26011.14182566  .00000118  00000+0  25407-3 0  9994
2 54663  87.9222 275.3193 0001746  76.3897 283.7432 13.21825421150794
ONEWEB-0600             
1 54664U 22166Y   26011.27511747  .00000024  00000+0  26799-4 0  9998
2 54664  87.9221 275.2835 0001724  71.6221 288.5101 13.21824782150785
ONEWEB-0601             
1 54665U 22166Z   26011.26688877  .00000061  00000+0  11686-3 0  9996
2 54665  87.9221 275.3031 0001911  76.7305 283.4042 13.21825211150979
ONEWEB-0602             
1 54666U 22166AA  26011.15581618  .00000112  00000+0  23936-3 0  9998
2 54666  87.9224 275.3298 0001729  65.0549 295.0764 13.21826624150807
ONEWEB-0603             
1 54667U 22166AB  26011.16157025  .00000093  00000+0  19301-3 0  9990
2 54667  87.9230 275.2697 0001744  74.4922 285.6405 13.21826691150736
ONEWEB-0604             
1 54668U 22166AC  26011.15005843  .00000138  00000+0  30162-3 0  9998
2 54668  87.9222 275.2895 0001566  73.8752 286.2554 13.21827158150690
ONEWEB-0605             
1 54669U 22166AD  26011.14345681 -.00000234  00000+0 -59858-3 0  9997
2 54669  87.9220 275.3182 0002111  86.2486 273.8890 13.21826012150769
ONEWEB-0606             
1 54670U 22166AE  26011.16485935  .00000084  00000+0  17205-3 0  9999
2 54670  87.9222 275.3257 0001432  77.2794 282.8500 13.21825190150824
